BEIDOU-3 G3 (PRN 143)   
1 45807U 20040A   26094.05555934 -.00000353  00000+0  00000+0 0  9997
2 45807   2.2659  67.2230 0004504 326.6647 289.0502  1.00270244 21321
GALAXY 30 (WAAS/PRN 135)
1 46114U 20056C   26094.22282666  .00000000  00000+0  00000+0 0  9992
2 46114   0.0179 206.7448 0002451 194.0795 106.9342  1.00271919 20550
QZS-1R (QZSS/PRN 196)   
1 49336U 21096A   26093.84475572 -.00000244  00000+0  00000+0 0  9994
2 49336  37.3098  80.6771 0749991 270.3739 280.6669  1.00281199 16269
QZS-6 (QZSS/PRN 200)    
1 62876U 25023A   26094.14003204 -.00000234  00000+0  00000+0 0  9994
2 62876   0.0365 278.7887 0002089 106.1244 308.4704  1.00274238  4219
