[{"OBJECT_NAME":"BEIDOU-3 G3 (PRN 143)","OBJECT_ID":"2020-040A","EPOCH":"2026-04-04T01:20:00.326976","MEAN_MOTION":1.00270244,"ECCENTRICITY":0.00045043,"INCLINATION":2.2659,"RA_OF_ASC_NODE":67.223,"ARG_OF_PERICENTER":326.6647,"MEAN_ANOMALY":289.0502,"EPHEMERIS_TYPE":0,"CLASSIFICATION_TYPE":"U","NORAD_CAT_ID":45807,"ELEMENT_SET_NO":999,"REV_AT_EPOCH":2132,"BSTAR":0,"MEAN_MOTION_DOT":-3.53e-6,"MEAN_MOTION_DDOT":0},{"OBJECT_NAME":"GALAXY 30 (WAAS/PRN 135)","OBJECT_ID":"2020-056C","EPOCH":"2026-04-04T05:20:52.223424","MEAN_MOTION":1.00271919,"ECCENTRICITY":0.00024517,"INCLINATION":0.0179,"RA_OF_ASC_NODE":206.7448,"ARG_OF_PERICENTER":194.0795,"MEAN_ANOMALY":106.9342,"EPHEMERIS_TYPE":0,"CLASSIFICATION_TYPE":"U","NORAD_CAT_ID":46114,"ELEMENT_SET_NO":999,"REV_AT_EPOCH":2055,"BSTAR":0,"MEAN_MOTION_DOT":0,"MEAN_MOTION_DDOT":0},{"OBJECT_NAME":"QZS-1R (QZSS/PRN 196)","OBJECT_ID":"2021-096A","EPOCH":"2026-04-03T20:16:26.894208","MEAN_MOTION":1.00281199,"ECCENTRICITY":0.07499915,"INCLINATION":37.3098,"RA_OF_ASC_NODE":80.6771,"ARG_OF_PERICENTER":270.3739,"MEAN_ANOMALY":280.6669,"EPHEMERIS_TYPE":0,"CLASSIFICATION_TYPE":"U","NORAD_CAT_ID":49336,"ELEMENT_SET_NO":999,"REV_AT_EPOCH":1626,"BSTAR":0,"MEAN_MOTION_DOT":-2.44e-6,"MEAN_MOTION_DDOT":0},{"OBJECT_NAME":"QZS-6 (QZSS/PRN 200)","OBJECT_ID":"2025-023A","EPOCH":"2026-04-04T03:21:38.768256","MEAN_MOTION":1.00274238,"ECCENTRICITY":0.00020898,"INCLINATION":0.0365,"RA_OF_ASC_NODE":278.7887,"ARG_OF_PERICENTER":106.1244,"MEAN_ANOMALY":308.4704,"EPHEMERIS_TYPE":0,"CLASSIFICATION_TYPE":"U","NORAD_CAT_ID":62876,"ELEMENT_SET_NO":999,"REV_AT_EPOCH":421,"BSTAR":0,"MEAN_MOTION_DOT":-2.34e-6,"MEAN_MOTION_DDOT":0}]
